GLOBALSTAR M024         
1 25883U 99043A   25290.94775330 -.00000053  00000+0  41243-3 0  9992
2 25883  51.9990 103.6279 0000593 345.8101 184.7935 11.10170425128491
GLOBALSTAR M027         
1 25884U 99043B   25290.95933763  .00000017  00000+0  30520-2 0  9994
2 25884  52.0193 185.0662 0020853 187.8588 172.1881 11.04372972154802
GLOBALSTAR M054         
1 25885U 99043C   25290.95352931 -.00000043  00000+0  73013-3 0  9992
2 25885  52.0137 291.7771 0005409  27.4422 344.8268 11.39221042133042
GLOBALSTAR M053         
1 25886U 99043D   25290.93837203 -.00000072  00000+0 -99548-4 0  9996
2 25886  51.9972 245.7168 0003320 301.2536 154.2590 11.27667679133291
GLOBALSTAR M058         
1 25907U 99049A   25290.94868761 -.00000068  00000+0  22791-3 0  9999
2 25907  51.9914 141.3680 0002511 130.0283 230.0772 11.93202994556190
GLOBALSTAR M050         
1 25908U 99049B   25290.99847223 -.00000050  00000+0  43189-3 0  9990
2 25908  51.9968 139.7353 0008108 278.5798 230.0421 12.07459161163028
GLOBALSTAR M033         
1 25909U 99049C   25290.88628899 -.00000193  00000+0 -97899-3 0  9991
2 25909  51.9941   3.3988 0014238 156.4662 203.6840 12.20294286550723
GLOBALSTAR M055         
1 25910U 99049D   25290.93899456 -.00000072  00000+0  19306-3 0  9990
2 25910  52.0049   8.0221 0007001  30.9136 329.2127 12.29433851183389
